{"type": "FeatureCollection", "features": [ {"type": "Feature", "properties": {"norad_id": 37094, "name": "COSMOS 2251 DEB", "group": "cosmos-2251-debris", "lat": -37.6455510709675, "lon": -24.92399168034603, "alt_km": 789.6239477867257, "timestamp": "2025-12-01T03:58:49.148818+00:00", "meta": {"OBJECT_NAME": "COSMOS 2251 DEB", "OBJECT_ID": "1993-036BFQ", "EPOCH": "2025-11-24T19:00:00.357120", "MEAN_MOTION": 14.37674552, "ECCENTRICITY": 0.0084502, "INCLINATION": 74.1075, "RA_OF_ASC_NODE": 154.0604, "ARG_OF_PERICENTER": 125.332, "MEAN_ANOMALY": 235.5772, "EPHEMERIS_TYPE": 0, "CLASSIFICATION_TYPE": "U", "NORAD_CAT_ID": 37094, "ELEMENT_SET_NO": 999, "REV_AT_EPOCH": 84248, "BSTAR": 0.0010704, "MEAN_MOTION_DOT": 3.328e-05, "MEAN_MOTION_DDOT": 0, "GROUP": "cosmos-2251-debris"}, "tle": {"line1": "1 37094U 93036BFQ 25328.79167080  .00003328  00000+0  10704-2 0  9991", "line2": "2 37094  74.1075 154.0604 0084502 125.3320 235.5772 14.37674552842485"}}, "geometry": {"type": "Point", "coordinates": [-24.92399168034603, -37.6455510709675]}}, {"type": "Feature", "properties": {"norad_id": 37095, "name": "COSMOS 2251 DEB", "group": "cosmos-2251-debris", "lat": 40.010405611832, "lon": 16.211125943323825, "alt_km": 973.1146325217142, "timestamp": "2025-12-01T03:58:49.148828+00:00", "meta": {"OBJECT_NAME": "COSMOS 2251 DEB", "OBJECT_ID": "1993-036BFR", "EPOCH": "2025-11-28T22:16:06.284928", "MEAN_MOTION": 14.03292763, "ECCENTRICITY": 0.01969867, "INCLINATION": 73.845, "RA_OF_ASC_NODE": 214.2335, "ARG_OF_PERICENTER": 274.3091, "MEAN_ANOMALY": 83.5558, "EPHEMERIS_TYPE": 0, "CLASSIFICATION_TYPE": "U", "NORAD_CAT_ID": 37095, "ELEMENT_SET_NO": 999, "REV_AT_EPOCH": 62442, "BSTAR": 0.0014835194, "MEAN_MOTION_DOT": 2.723e-05, "MEAN_MOTION_DDOT": 0, "GROUP": "cosmos-2251-debris"}, "tle": {"line1": "1 37095U 93036BFR 25332.92785052  .00002723  00000+0  14835-2 0  9994", "line2": "2 37095  73.8450 214.2335 0196986 274.3091  83.5558 14.03292763624427"}}, "geometry": {"type": "Point", "coordinates": [16.211125943323825, 40.010405611832]}}, {"type": "Feature", "properties": {"norad_id": 37108, "name": "COSMOS 2251 DEB", "group": "cosmos-2251-debris", "lat": 43.89786245028462, "lon": 117.96445259237025, "alt_km": 797.367194706866, "timestamp": "2025-12-01T03:58:49.148841+00:00", "meta": {"OBJECT_NAME": "COSMOS 2251 DEB", "OBJECT_ID": "1993-036BGE", "EPOCH": "2025-11-29T08:26:41.390880", "MEAN_MOTION": 14.41078034, "ECCENTRICITY": 0.00928305, "INCLINATION": 74.0431, "RA_OF_ASC_NODE": 105.339, "ARG_OF_PERICENTER": 185.0618, "MEAN_ANOMALY": 174.961, "EPHEMERIS_TYPE": 0, "CLASSIFICATION_TYPE": "U", "NORAD_CAT_ID": 37108, "ELEMENT_SET_NO": 999, "REV_AT_EPOCH": 85314, "BSTAR": 0.001488902, "MEAN_MOTION_DOT": 5.021e-05, "MEAN_MOTION_DDOT": 0, "GROUP": "cosmos-2251-debris"}, "tle": {"line1": "1 37108U 93036BGE 25333.35186795  .00005021  00000+0  14889-2 0  9999", "line2": "2 37108  74.0431 105.3390 0092830 185.0618 174.9610 14.41078034853143"}}, "geometry": {"type": "Point", "coordinates": [117.96445259237025, 43.89786245028462]}}, {"type": "Feature", "properties": {"norad_id": 37126, "name": "COSMOS 2251 DEB", "group": "cosmos-2251-debris", "lat": 57.07044668384214, "lon": 43.59092868208167, "alt_km": 728.7310358165341, "timestamp": "2025-12-01T03:58:49.148851+00:00", "meta": {"OBJECT_NAME": "COSMOS 2251 DEB", "OBJECT_ID": "1993-036BGY", "EPOCH": "2025-11-27T19:49:48.379296", "MEAN_MOTION": 14.7298682, "ECCENTRICITY": 0.01235898, "INCLINATION": 73.9551, "RA_OF_ASC_NODE": 23.7462, "ARG_OF_PERICENTER": 265.0836, "MEAN_ANOMALY": 93.6217, "EPHEMERIS_TYPE": 0, "CLASSIFICATION_TYPE": "U", "NORAD_CAT_ID": 37126, "ELEMENT_SET_NO": 999, "REV_AT_EPOCH": 7879, "BSTAR": 0.00028630481, "MEAN_MOTION_DOT": 2.036e-05, "MEAN_MOTION_DDOT": 0, "GROUP": "cosmos-2251-debris"}, "tle": {"line1": "1 37126U 93036BGY 25331.82625439  .00002036  00000+0  28630-3 0  9995", "line2": "2 37126  73.9551  23.7462 0123589 265.0836  93.6217 14.72986820 78799"}}, "geometry": {"type": "Point", "coordinates": [43.59092868208167, 57.07044668384214]}}, {"type": "Feature", "properties": {"norad_id": 37132, "name": "COSMOS 2251 DEB", "group": "cosmos-2251-debris", "lat": -71.088728346337, "lon": -160.06842828223296, "alt_km": 663.5898714151745, "timestamp": "2025-12-01T03:58:49.148861+00:00", "meta": {"OBJECT_NAME": "COSMOS 2251 DEB", "OBJECT_ID": "1993-036BHE", "EPOCH": "2025-11-29T01:57:55.161216", "MEAN_MOTION": 14.77491911, "ECCENTRICITY": 0.00393056, "INCLINATION": 74.0019, "RA_OF_ASC_NODE": 260.8973, "ARG_OF_PERICENTER": 60.0895, "MEAN_ANOMALY": 300.4174, "EPHEMERIS_TYPE": 0, "CLASSIFICATION_TYPE": "U", "NORAD_CAT_ID": 37132, "ELEMENT_SET_NO": 999, "REV_AT_EPOCH": 62214, "BSTAR": 0.0012599445, "MEAN_MOTION_DOT": 9.078e-05, "MEAN_MOTION_DDOT": 0, "GROUP": "cosmos-2251-debris"}, "tle": {"line1": "1 37132U 93036BHE 25333.08188844  .00009078  00000+0  12599-2 0  9995", "line2": "2 37132  74.0019 260.8973 0039305  60.0895 300.4174 14.77491911622140"}}, "geometry": {"type": "Point", "coordinates": [-160.06842828223296, -71.088728346337]}}, {"type": "Feature", "properties": {"norad_id": 37270, "name": "COSMOS 2251 DEB", "group": "cosmos-2251-debris", "lat": -53.38364894109083, "lon": -28.035669794251866, "alt_km": 910.9840263758342, "timestamp": "2025-12-01T03:58:49.148871+00:00", "meta": {"OBJECT_NAME": "COSMOS 2251 DEB", "OBJECT_ID": "1993-036BHJ", "EPOCH": "2025-11-27T01:21:20.456928", "MEAN_MOTION": 13.59593869, "ECCENTRICITY": 0.03978081, "INCLINATION": 73.9363, "RA_OF_ASC_NODE": 1.4774, "ARG_OF_PERICENTER": 16.2262, "MEAN_ANOMALY": 345.1165, "EPHEMERIS_TYPE": 0, "CLASSIFICATION_TYPE": "U", "NORAD_CAT_ID": 37270, "ELEMENT_SET_NO": 999, "REV_AT_EPOCH": 76856, "BSTAR": 0.003101246, "MEAN_MOTION_DOT": 3.855e-05, "MEAN_MOTION_DDOT": 0, "GROUP": "cosmos-2251-debris"}, "tle": {"line1": "1 37270U 93036BHJ 25331.05648677  .00003855  00000+0  31012-2 0  9996", "line2": "2 37270  73.9363   1.4774 0397808  16.2262 345.1165 13.59593869768564"}}, "geometry": {"type": "Point", "coordinates": [-28.035669794251866, -53.38364894109083]}}, {"type": "Feature", "properties": {"norad_id": 37278, "name": "COSMOS 2251 DEB", "group": "cosmos-2251-debris", "lat": -6.858503933790937, "lon": -167.80651746507078, "alt_km": 630.0020421491517, "timestamp": "2025-12-01T03:58:49.148880+00:00", "meta": {"OBJECT_NAME": "COSMOS 2251 DEB", "OBJECT_ID": "1993-036BHS", "EPOCH": "2025-11-30T10:25:41.054016", "MEAN_MOTION": 14.14985374, "ECCENTRICITY": 0.03012631, "INCLINATION": 73.7783, "RA_OF_ASC_NODE": 11.5063, "ARG_OF_PERICENTER": 196.0395, "MEAN_ANOMALY": 227.4445, "EPHEMERIS_TYPE": 0, "CLASSIFICATION_TYPE": "U", "NORAD_CAT_ID": 37278, "ELEMENT_SET_NO": 999, "REV_AT_EPOCH": 63655, "BSTAR": 0.0011427831, "MEAN_MOTION_DOT": 3.403e-05, "MEAN_MOTION_DDOT": 0, "GROUP": "cosmos-2251-debris"}, "tle": {"line1": "1 37278U 93036BHS 25334.43450294  .00003403  00000+0  11428-2 0  9993", "line2": "2 37278  73.7783  11.5063 0301263 196.0395 227.4445 14.14985374636557"}}, "geometry": {"type": "Point", "coordinates": [-167.80651746507078, -6.858503933790937]}}, {"type": "Feature", "properties": {"norad_id": 37280, "name": "COSMOS 2251 DEB", "group": "cosmos-2251-debris", "lat": -35.372222769519624, "lon": 66.0296626644935, "alt_km": 872.5568617807357, "timestamp": "2025-12-01T03:58:49.148891+00:00", "meta": {"OBJECT_NAME": "COSMOS 2251 DEB", "OBJECT_ID": "1993-036BHU", "EPOCH": "2025-11-28T13:33:34.045632", "MEAN_MOTION": 14.19137929, "ECCENTRICITY": 0.01320536, "INCLINATION": 74.0309, "RA_OF_ASC_NODE": 82.405, "ARG_OF_PERICENTER": 213.7948, "MEAN_ANOMALY": 145.473, "EPHEMERIS_TYPE": 0, "CLASSIFICATION_TYPE": "U", "NORAD_CAT_ID": 37280, "ELEMENT_SET_NO": 999, "REV_AT_EPOCH": 57122, "BSTAR": 0.0019922442, "MEAN_MOTION_DOT": 4.524e-05, "MEAN_MOTION_DDOT": 0, "GROUP": "cosmos-2251-debris"}, "tle": {"line1": "1 37280U 93036BHU 25332.56497738  .00004524  00000+0  19922-2 0  9994", "line2": "2 37280  74.0309  82.4050 0132053 213.7948 145.4730 14.19137929571229"}}, "geometry": {"type": "Point", "coordinates": [66.0296626644935, -35.372222769519624]}}, {"type": "Feature", "properties": {"norad_id": 37284, "name": "COSMOS 2251 DEB", "group": "cosmos-2251-debris", "lat": -50.73929420806431, "lon": 17.74637103437189, "alt_km": 870.8524196569842, "timestamp": "2025-12-01T03:58:49.148903+00:00", "meta": {"OBJECT_NAME": "COSMOS 2251 DEB", "OBJECT_ID": "1993-036BHY", "EPOCH": "2025-11-30T20:08:14.680320", "MEAN_MOTION": 14.12622017, "ECCENTRICITY": 0.0160558, "INCLINATION": 74.0147, "RA_OF_ASC_NODE": 177.794, "ARG_OF_PERICENTER": 332.0205, "MEAN_ANOMALY": 42.1791, "EPHEMERIS_TYPE": 0, "CLASSIFICATION_TYPE": "U", "NORAD_CAT_ID": 37284, "ELEMENT_SET_NO": 999, "REV_AT_EPOCH": 59007, "BSTAR": 0.001195, "MEAN_MOTION_DOT": 2.475e-05, "MEAN_MOTION_DDOT": 0, "GROUP": "cosmos-2251-debris"}, "tle": {"line1": "1 37284U 93036BHY 25334.83905880  .00002475  00000+0  11950-2 0  9998", "line2": "2 37284  74.0147 177.7940 0160558 332.0205  42.1791 14.12622017590075"}}, "geometry": {"type": "Point", "coordinates": [17.74637103437189, -50.73929420806431]}}]}